STARLINK-31593          
1 59350U 24060C   26068.53484944 -.00001013  00000+0 -27294-4 0  9991
2 59350  43.0021 260.3484 0001082 292.7870  67.2868 15.27569226110045
TEVEL2-8                
1 63239U 25052AF  26068.66815442  .00019130  00000+0  69304-3 0  9993
2 63239  97.4055 324.2923 0008031 124.9191 235.2804 15.28392908 54807
